SL-14 R/B               
1 16792U 86046B   25363.89119341  .00000919  00000+0  10305-3 0  9994
2 16792  82.4822 146.1162 0024574  98.2713 262.1291 14.85506004116044
SL-14 R/B               
1 16882U 86055B   25364.31394889  .00000869  00000+0  97526-4 0  9999
2 16882  82.5194 191.8585 0018394 197.5416 335.5423 14.85550265109063
AJISAI (EGS)            
1 16908U 86061A   25364.27121006 -.00000088  00000+0  69769-4 0  9991
2 16908  50.0110 306.8098 0011320 109.9070  54.6314 12.44514510459356
COSMOS 1812             
1 17295U 87003A   25364.24013818  .00151442  00000+0  82464-3 0  9992
2 17295  82.4868 273.0222 0005477  63.9698 296.2132 15.79492629133415
SL-14 R/B               
1 17567U 87024B   25364.15192889  .00000930  00000+0  10326-3 0  9996
2 17567  82.5284 158.0973 0019440 128.2704 232.0266 14.86045351 77802
COSMOS 1833             
1 17589U 87027A   25364.06155760  .00000322  00000+0  19805-3 0  9996
2 17589  70.9174 112.3653 0023338 307.6358  52.2645 14.13031720   480
SL-16 R/B               
1 17590U 87027B   25364.23695697 -.00000152  00000+0 -51749-4 0  9992
2 17590  71.0034  62.8492 0007107 241.4464 118.5945 14.17156124  5505
SL-14 R/B               
1 17912U 87038B   25364.24584556  .00000877  00000+0  98991-4 0  9996
2 17912  82.5010   2.2101 0020281  38.0687 322.1958 14.85280451 68922
COSMOS 1844             
1 17973U 87041A   25364.24095027  .00000347  00000+0  20508-3 0  9997
2 17973  70.8977 180.6581 0029178 129.3818 230.9895 14.14535648993766
SL-14 R/B               
1 18153U 87055B   25364.23466197  .00000787  00000+0  88067-4 0  9995
2 18153  82.4987  54.4996 0019341 241.2147 118.7127 14.85540960 59625
COSMOS 1867             
1 18187U 87060A   25363.78899298  .00000024  00000+0  46595-4 0  9993
2 18187  65.0097 142.4575 0013740 272.8491  87.1020 14.31489225  9938
SL-14 R/B               
1 18749U 88001B   25364.22543089  .00000780  00000+0  87376-4 0  9998
2 18749  82.5132 260.7023 0019561 106.5704 253.7662 14.85443906 31714
