CCSDS_OMM_VERS = 2.0
CREATION_DATE  = 
ORIGINATOR     = 

OBJECT_NAME    = SL-14 R/B
OBJECT_ID      = 1986-046B
CENTER_NAME    = EARTH
REF_FRAME      = TEME
TIME_SYSTEM    = UTC
MEAN_ELEMENT_THEORY = SGP/SGP4

EPOCH          = 2025-12-29T21:23:19.110624
MEAN_MOTION    = 14.85506004
ECCENTRICITY   = .00245744
INCLINATION    = 82.4822
RA_OF_ASC_NODE = 146.1162
ARG_OF_PERICENTER = 98.2713
MEAN_ANOMALY   = 262.1291

EPHEMERIS_TYPE = 0
CLASSIFICATION_TYPE = U
NORAD_CAT_ID   = 16792
ELEMENT_SET_NO = 999
REV_AT_EPOCH   = 11604
BSTAR          = .10304951E-3
MEAN_MOTION_DOT = .919E-5
MEAN_MOTION_DDOT = 0

CCSDS_OMM_VERS = 2.0
CREATION_DATE  = 
ORIGINATOR     = 

OBJECT_NAME    = SL-14 R/B
OBJECT_ID      = 1986-055B
CENTER_NAME    = EARTH
REF_FRAME      = TEME
TIME_SYSTEM    = UTC
MEAN_ELEMENT_THEORY = SGP/SGP4

EPOCH          = 2025-12-30T07:32:05.184096
MEAN_MOTION    = 14.85550265
ECCENTRICITY   = .00183941
INCLINATION    = 82.5194
RA_OF_ASC_NODE = 191.8585
ARG_OF_PERICENTER = 197.5416
MEAN_ANOMALY   = 335.5423

EPHEMERIS_TYPE = 0
CLASSIFICATION_TYPE = U
NORAD_CAT_ID   = 16882
ELEMENT_SET_NO = 999
REV_AT_EPOCH   = 10906
BSTAR          = .97525794E-4
MEAN_MOTION_DOT = .869E-5
MEAN_MOTION_DDOT = 0

CCSDS_OMM_VERS = 2.0
CREATION_DATE  = 
ORIGINATOR     = 

OBJECT_NAME    = AJISAI (EGS)
OBJECT_ID      = 1986-061A
CENTER_NAME    = EARTH
REF_FRAME      = TEME
TIME_SYSTEM    = UTC
MEAN_ELEMENT_THEORY = SGP/SGP4

EPOCH          = 2025-12-30T06:30:32.549184
MEAN_MOTION    = 12.44514510
ECCENTRICITY   = .00113202
INCLINATION    = 50.0110
RA_OF_ASC_NODE = 306.8098
ARG_OF_PERICENTER = 109.9070
MEAN_ANOMALY   = 54.6314

EPHEMERIS_TYPE = 0
CLASSIFICATION_TYPE = U
NORAD_CAT_ID   = 16908
ELEMENT_SET_NO = 999
REV_AT_EPOCH   = 45935
BSTAR          = .69768939E-4
MEAN_MOTION_DOT = -.88E-6
MEAN_MOTION_DDOT = 0

CCSDS_OMM_VERS = 2.0
CREATION_DATE  = 
ORIGINATOR     = 

OBJECT_NAME    = COSMOS 1812
OBJECT_ID      = 1987-003A
CENTER_NAME    = EARTH
REF_FRAME      = TEME
TIME_SYSTEM    = UTC
MEAN_ELEMENT_THEORY = SGP/SGP4

EPOCH          = 2025-12-30T05:45:47.938752
MEAN_MOTION    = 15.79492629
ECCENTRICITY   = .00054776
INCLINATION    = 82.4868
RA_OF_ASC_NODE = 273.0222
ARG_OF_PERICENTER = 63.9698
MEAN_ANOMALY   = 296.2132

EPHEMERIS_TYPE = 0
CLASSIFICATION_TYPE = U
NORAD_CAT_ID   = 17295
ELEMENT_SET_NO = 999
REV_AT_EPOCH   = 13341
BSTAR          = .82463841E-3
MEAN_MOTION_DOT = .151442E-2
MEAN_MOTION_DDOT = 0

CCSDS_OMM_VERS = 2.0
CREATION_DATE  = 
ORIGINATOR     = 

OBJECT_NAME    = SL-14 R/B
OBJECT_ID      = 1987-024B
CENTER_NAME    = EARTH
REF_FRAME      = TEME
TIME_SYSTEM    = UTC
MEAN_ELEMENT_THEORY = SGP/SGP4

EPOCH          = 2025-12-30T03:38:46.656096
MEAN_MOTION    = 14.86045351
ECCENTRICITY   = .00194401
INCLINATION    = 82.5284
RA_OF_ASC_NODE = 158.0973
ARG_OF_PERICENTER = 128.2704
MEAN_ANOMALY   = 232.0266

EPHEMERIS_TYPE = 0
CLASSIFICATION_TYPE = U
NORAD_CAT_ID   = 17567
ELEMENT_SET_NO = 999
REV_AT_EPOCH   = 7780
BSTAR          = .10325724E-3
MEAN_MOTION_DOT = .93E-5
MEAN_MOTION_DDOT = 0

CCSDS_OMM_VERS = 2.0
CREATION_DATE  = 
ORIGINATOR     = 

OBJECT_NAME    = COSMOS 1833
OBJECT_ID      = 1987-027A
CENTER_NAME    = EARTH
REF_FRAME      = TEME
TIME_SYSTEM    = UTC
MEAN_ELEMENT_THEORY = SGP/SGP4

EPOCH          = 2025-12-30T01:28:38.576640
MEAN_MOTION    = 14.13031720
ECCENTRICITY   = .00233387
INCLINATION    = 70.9174
RA_OF_ASC_NODE = 112.3653
ARG_OF_PERICENTER = 307.6358
MEAN_ANOMALY   = 52.2645

EPHEMERIS_TYPE = 0
CLASSIFICATION_TYPE = U
NORAD_CAT_ID   = 17589
ELEMENT_SET_NO = 999
REV_AT_EPOCH   = 48
BSTAR          = .19804862E-3
MEAN_MOTION_DOT = .322E-5
MEAN_MOTION_DDOT = 0

CCSDS_OMM_VERS = 2.0
CREATION_DATE  = 
ORIGINATOR     = 

OBJECT_NAME    = SL-16 R/B
OBJECT_ID      = 1987-027B
CENTER_NAME    = EARTH
REF_FRAME      = TEME
TIME_SYSTEM    = UTC
MEAN_ELEMENT_THEORY = SGP/SGP4

EPOCH          = 2025-12-30T05:41:13.082208
MEAN_MOTION    = 14.17156124
ECCENTRICITY   = .00071072
INCLINATION    = 71.0034
RA_OF_ASC_NODE = 62.8492
ARG_OF_PERICENTER = 241.4464
MEAN_ANOMALY   = 118.5945

EPHEMERIS_TYPE = 0
CLASSIFICATION_TYPE = U
NORAD_CAT_ID   = 17590
ELEMENT_SET_NO = 999
REV_AT_EPOCH   = 550
BSTAR          = -.51748726E-4
MEAN_MOTION_DOT = -.152E-5
MEAN_MOTION_DDOT = 0

CCSDS_OMM_VERS = 2.0
CREATION_DATE  = 
ORIGINATOR     = 

OBJECT_NAME    = SL-14 R/B
OBJECT_ID      = 1987-038B
CENTER_NAME    = EARTH
REF_FRAME      = TEME
TIME_SYSTEM    = UTC
MEAN_ELEMENT_THEORY = SGP/SGP4

EPOCH          = 2025-12-30T05:54:01.056384
MEAN_MOTION    = 14.85280451
ECCENTRICITY   = .00202818
INCLINATION    = 82.5010
RA_OF_ASC_NODE = 2.2101
ARG_OF_PERICENTER = 38.0687
MEAN_ANOMALY   = 322.1958

EPHEMERIS_TYPE = 0
CLASSIFICATION_TYPE = U
NORAD_CAT_ID   = 17912
ELEMENT_SET_NO = 999
REV_AT_EPOCH   = 6892
BSTAR          = .98990883E-4
MEAN_MOTION_DOT = .877E-5
MEAN_MOTION_DDOT = 0

CCSDS_OMM_VERS = 2.0
CREATION_DATE  = 
ORIGINATOR     = 

OBJECT_NAME    = COSMOS 1844
OBJECT_ID      = 1987-041A
CENTER_NAME    = EARTH
REF_FRAME      = TEME
TIME_SYSTEM    = UTC
MEAN_ELEMENT_THEORY = SGP/SGP4

EPOCH          = 2025-12-30T05:46:58.103328
MEAN_MOTION    = 14.14535648
ECCENTRICITY   = .0029178
INCLINATION    = 70.8977
RA_OF_ASC_NODE = 180.6581
ARG_OF_PERICENTER = 129.3818
MEAN_ANOMALY   = 230.9895

EPHEMERIS_TYPE = 0
CLASSIFICATION_TYPE = U
NORAD_CAT_ID   = 17973
ELEMENT_SET_NO = 999
REV_AT_EPOCH   = 99376
BSTAR          = .20508146E-3
MEAN_MOTION_DOT = .347E-5
MEAN_MOTION_DDOT = 0

CCSDS_OMM_VERS = 2.0
CREATION_DATE  = 
ORIGINATOR     = 

OBJECT_NAME    = SL-14 R/B
OBJECT_ID      = 1987-055B
CENTER_NAME    = EARTH
REF_FRAME      = TEME
TIME_SYSTEM    = UTC
MEAN_ELEMENT_THEORY = SGP/SGP4

EPOCH          = 2025-12-30T05:37:54.794208
MEAN_MOTION    = 14.85540960
ECCENTRICITY   = .00193419
INCLINATION    = 82.4987
RA_OF_ASC_NODE = 54.4996
ARG_OF_PERICENTER = 241.2147
MEAN_ANOMALY   = 118.7127

EPHEMERIS_TYPE = 0
CLASSIFICATION_TYPE = U
NORAD_CAT_ID   = 18153
ELEMENT_SET_NO = 999
REV_AT_EPOCH   = 5962
BSTAR          = .88066965E-4
MEAN_MOTION_DOT = .787E-5
MEAN_MOTION_DDOT = 0

CCSDS_OMM_VERS = 2.0
CREATION_DATE  = 
ORIGINATOR     = 

OBJECT_NAME    = COSMOS 1867
OBJECT_ID      = 1987-060A
CENTER_NAME    = EARTH
REF_FRAME      = TEME
TIME_SYSTEM    = UTC
MEAN_ELEMENT_THEORY = SGP/SGP4

EPOCH          = 2025-12-29T18:56:08.993472
MEAN_MOTION    = 14.31489225
ECCENTRICITY   = .00137404
INCLINATION    = 65.0097
RA_OF_ASC_NODE = 142.4575
ARG_OF_PERICENTER = 272.8491
MEAN_ANOMALY   = 87.1020

EPHEMERIS_TYPE = 0
CLASSIFICATION_TYPE = U
NORAD_CAT_ID   = 18187
ELEMENT_SET_NO = 999
REV_AT_EPOCH   = 993
BSTAR          = .4659517E-4
MEAN_MOTION_DOT = .24E-6
MEAN_MOTION_DDOT = 0

CCSDS_OMM_VERS = 2.0
CREATION_DATE  = 
ORIGINATOR     = 

OBJECT_NAME    = SL-14 R/B
OBJECT_ID      = 1988-001B
CENTER_NAME    = EARTH
REF_FRAME      = TEME
TIME_SYSTEM    = UTC
MEAN_ELEMENT_THEORY = SGP/SGP4

EPOCH          = 2025-12-30T05:24:37.228896
MEAN_MOTION    = 14.85443906
ECCENTRICITY   = .00195613
INCLINATION    = 82.5132
RA_OF_ASC_NODE = 260.7023
ARG_OF_PERICENTER = 106.5704
MEAN_ANOMALY   = 253.7662

EPHEMERIS_TYPE = 0
CLASSIFICATION_TYPE = U
NORAD_CAT_ID   = 18749
ELEMENT_SET_NO = 999
REV_AT_EPOCH   = 3171
BSTAR          = .87375998E-4
MEAN_MOTION_DOT = .78E-5
MEAN_MOTION_DDOT = 0

